[{"OBJECT_NAME":"STARLINK-31697","OBJECT_ID":"2024-076V","EPOCH":"2026-03-09T05:25:45.128064","MEAN_MOTION":15.28599043,"ECCENTRICITY":0.00013526,"INCLINATION":43.0011,"RA_OF_ASC_NODE":11.4517,"ARG_OF_PERICENTER":268.5323,"MEAN_ANOMALY":91.5374,"EPHEMERIS_TYPE":0,"CLASSIFICATION_TYPE":"U","NORAD_CAT_ID":59583,"ELEMENT_SET_NO":999,"REV_AT_EPOCH":10634,"BSTAR":3.3673464e-5,"MEAN_MOTION_DOT":6.91e-6,"MEAN_MOTION_DDOT":0},{"OBJECT_NAME":"TRANSPORTER-1 OBJECT Z","OBJECT_ID":"2021-006Z","EPOCH":"2026-03-09T22:55:57.522432","MEAN_MOTION":15.30965056,"ECCENTRICITY":0.00100878,"INCLINATION":97.2377,"RA_OF_ASC_NODE":113.4736,"ARG_OF_PERICENTER":179.6869,"MEAN_ANOMALY":180.438,"EPHEMERIS_TYPE":0,"CLASSIFICATION_TYPE":"U","NORAD_CAT_ID":47436,"ELEMENT_SET_NO":999,"REV_AT_EPOCH":28420,"BSTAR":0.00024088983,"MEAN_MOTION_DOT":7.143e-5,"MEAN_MOTION_DDOT":0}]
